{"1550998":{"id":1550998,"bodyId":5375761,"brand":"audi","model":"A6","generation":"4A,C4","body":"Sedan","name":"2.8 V6 30V","awd":false,"transmission":"","hp":"193","productionStart":1995,"productionEnd":1997,"maxSpeed":"228","accelerationKm":"9.2","accelerationMp":"8.7","fuelConsumptionPer100Km":"","fuelConsumptionPerUSPmg":"","fuelConsumptionPerUKPmg":"","fuelConsumptionPerLiter":""},"9172367":{"id":9172367,"bodyId":5375761,"brand":"audi","model":"A6","generation":"4A,C4","body":"Sedan","name":"2.5 TDI","awd":false,"transmission":"","hp":"115","productionStart":1994,"productionEnd":1997,"maxSpeed":"195","accelerationKm":"11.2","accelerationMp":"10.6","fuelConsumptionPer100Km":"","fuelConsumptionPerUSPmg":"","fuelConsumptionPerUKPmg":"","fuelConsumptionPerLiter":""},"5795869":{"id":5795869,"bodyId":5375761,"brand":"audi","model":"A6","generation":"4A,C4","body":"Sedan","name":"2.6 V6","awd":false,"transmission":"","hp":"150","productionStart":1994,"productionEnd":1997,"maxSpeed":"209","accelerationKm":"9.9","accelerationMp":"9.4","fuelConsumptionPer100Km":"","fuelConsumptionPerUSPmg":"","fuelConsumptionPerUKPmg":"","fuelConsumptionPerLiter":""},"9169804":{"id":9169804,"bodyId":5375761,"brand":"audi","model":"A6","generation":"4A,C4","body":"Sedan","name":"2.0 16V","awd":true,"transmission":"","hp":"140","productionStart":1994,"productionEnd":1997,"maxSpeed":"218","accelerationKm":"","accelerationMp":"","fuelConsumptionPer100Km":"","fuelConsumptionPerUSPmg":"","fuelConsumptionPerUKPmg":"","fuelConsumptionPerLiter":""},"9928528":{"id":9928528,"bodyId":5375761,"brand":"audi","model":"A6","generation":"4A,C4","body":"Sedan","name":"1.8 20V","awd":false,"transmission":"","hp":"125","productionStart":1995,"productionEnd":1997,"maxSpeed":"200","accelerationKm":"11.2","accelerationMp":"10.6","fuelConsumptionPer100Km":"","fuelConsumptionPerUSPmg":"","fuelConsumptionPerUKPmg":"","fuelConsumptionPerLiter":""},"9345990":{"id":9345990,"bodyId":5375761,"brand":"audi","model":"A6","generation":"4A,C4","body":"Sedan","name":"2.8 V6","awd":true,"transmission":"","hp":"174","productionStart":1994,"productionEnd":1997,"maxSpeed":"218","accelerationKm":"9.1","accelerationMp":"8.6","fuelConsumptionPer100Km":"","fuelConsumptionPerUSPmg":"","fuelConsumptionPerUKPmg":"","fuelConsumptionPerLiter":""},"9087939":{"id":9087939,"bodyId":5375761,"brand":"audi","model":"A6","generation":"4A,C4","body":"Sedan","name":"1.9 TDI","awd":false,"transmission":"","hp":"90","productionStart":1994,"productionEnd":1996,"maxSpeed":"177","accelerationKm":"17.5","accelerationMp":"16.6","fuelConsumptionPer100Km":"","fuelConsumptionPerUSPmg":"","fuelConsumptionPerUKPmg":"","fuelConsumptionPerLiter":""},"7220325":{"id":7220325,"bodyId":5375761,"brand":"audi","model":"A6","generation":"4A,C4","body":"Sedan","name":"2.5 TDI","awd":false,"transmission":"","hp":"140","productionStart":1996,"productionEnd":1997,"maxSpeed":"205","accelerationKm":"11.1","accelerationMp":"10.5","fuelConsumptionPer100Km":"","fuelConsumptionPerUSPmg":"","fuelConsumptionPerUKPmg":"","fuelConsumptionPerLiter":""},"6707947":{"id":6707947,"bodyId":5375761,"brand":"audi","model":"A6","generation":"4A,C4","body":"Sedan","name":"1.8 20V","awd":true,"transmission":"","hp":"125","productionStart":1995,"productionEnd":1997,"maxSpeed":"198","accelerationKm":"11.5","accelerationMp":"10.9","fuelConsumptionPer100Km":"","fuelConsumptionPerUSPmg":"","fuelConsumptionPerUKPmg":"","fuelConsumptionPerLiter":""},"7251552":{"id":7251552,"bodyId":5375761,"brand":"audi","model":"A6","generation":"4A,C4","body":"Sedan","name":"2.0","awd":false,"transmission":"","hp":"115","productionStart":1994,"productionEnd":1996,"maxSpeed":"187","accelerationKm":"13.9","accelerationMp":"13.2","fuelConsumptionPer100Km":"","fuelConsumptionPerUSPmg":"","fuelConsumptionPerUKPmg":"","fuelConsumptionPerLiter":""},"8525133":{"id":8525133,"bodyId":5375761,"brand":"audi","model":"A6","generation":"4A,C4","body":"Sedan","name":"2.8 V6 30V","awd":true,"transmission":"","hp":"193","productionStart":1995,"productionEnd":1997,"maxSpeed":"229","accelerationKm":"8.1","accelerationMp":"7.7","fuelConsumptionPer100Km":"","fuelConsumptionPerUSPmg":"","fuelConsumptionPerUKPmg":"","fuelConsumptionPerLiter":""},"9018842":{"id":9018842,"bodyId":5375761,"brand":"audi","model":"A6","generation":"4A,C4","body":"Sedan","name":"2.6 V6","awd":false,"transmission":"","hp":"150","productionStart":1994,"productionEnd":1997,"maxSpeed":"207","accelerationKm":"11.5","accelerationMp":"10.9","fuelConsumptionPer100Km":"","fuelConsumptionPerUSPmg":"","fuelConsumptionPerUKPmg":"","fuelConsumptionPerLiter":""},"8169129":{"id":8169129,"bodyId":5375761,"brand":"audi","model":"A6","generation":"4A,C4","body":"Sedan","name":"2.3","awd":false,"transmission":"","hp":"133","productionStart":1994,"productionEnd":1996,"maxSpeed":"202","accelerationKm":"10.2","accelerationMp":"9.7","fuelConsumptionPer100Km":"","fuelConsumptionPerUSPmg":"","fuelConsumptionPerUKPmg":"","fuelConsumptionPerLiter":""},"3015091":{"id":3015091,"bodyId":5375761,"brand":"audi","model":"A6","generation":"4A,C4","body":"Sedan","name":"1.8 20V","awd":false,"transmission":"","hp":"125","productionStart":1995,"productionEnd":1997,"maxSpeed":"197","accelerationKm":"12.9","accelerationMp":"12.3","fuelConsumptionPer100Km":"","fuelConsumptionPerUSPmg":"","fuelConsumptionPerUKPmg":"","fuelConsumptionPerLiter":""},"1131696":{"id":1131696,"bodyId":5375761,"brand":"audi","model":"A6","generation":"4A,C4","body":"Sedan","name":"2.0 16V","awd":false,"transmission":"","hp":"140","productionStart":1994,"productionEnd":1997,"maxSpeed":"","accelerationKm":"","accelerationMp":"","fuelConsumptionPer100Km":"","fuelConsumptionPerUSPmg":"","fuelConsumptionPerUKPmg":"","fuelConsumptionPerLiter":""},"6239613":{"id":6239613,"bodyId":5375761,"brand":"audi","model":"A6","generation":"4A,C4","body":"Sedan","name":"2.3","awd":true,"transmission":"","hp":"133","productionStart":1994,"productionEnd":1996,"maxSpeed":"","accelerationKm":"","accelerationMp":"","fuelConsumptionPer100Km":"","fuelConsumptionPerUSPmg":"","fuelConsumptionPerUKPmg":"","fuelConsumptionPerLiter":""},"3135947":{"id":3135947,"bodyId":5375761,"brand":"audi","model":"A6","generation":"4A,C4","body":"Sedan","name":"2.8 V6 30V","awd":true,"transmission":"","hp":"193","productionStart":1995,"productionEnd":1997,"maxSpeed":"226","accelerationKm":"9.9","accelerationMp":"9.4","fuelConsumptionPer100Km":"","fuelConsumptionPerUSPmg":"","fuelConsumptionPerUKPmg":"","fuelConsumptionPerLiter":""},"8592932":{"id":8592932,"bodyId":5375761,"brand":"audi","model":"A6","generation":"4A,C4","body":"Sedan","name":"2.8 V6","awd":true,"transmission":"","hp":"174","productionStart":1994,"productionEnd":1997,"maxSpeed":"215","accelerationKm":"11.2","accelerationMp":"10.6","fuelConsumptionPer100Km":"","fuelConsumptionPerUSPmg":"","fuelConsumptionPerUKPmg":"","fuelConsumptionPerLiter":""},"3653854":{"id":3653854,"bodyId":5375761,"brand":"audi","model":"A6","generation":"4A,C4","body":"Sedan","name":"2.8 V6","awd":false,"transmission":"","hp":"174","productionStart":1994,"productionEnd":1997,"maxSpeed":"219","accelerationKm":"9.1","accelerationMp":"8.6","fuelConsumptionPer100Km":"","fuelConsumptionPerUSPmg":"","fuelConsumptionPerUKPmg":"","fuelConsumptionPerLiter":""},"4966118":{"id":4966118,"bodyId":5375761,"brand":"audi","model":"A6","generation":"4A,C4","body":"Sedan","name":"2.5 TDI","awd":false,"transmission":"","hp":"140","productionStart":1996,"productionEnd":1997,"maxSpeed":"208","accelerationKm":"9.9","accelerationMp":"9.4","fuelConsumptionPer100Km":"","fuelConsumptionPerUSPmg":"","fuelConsumptionPerUKPmg":"","fuelConsumptionPerLiter":""},"4594731":{"id":4594731,"bodyId":5375761,"brand":"audi","model":"A6","generation":"4A,C4","body":"Sedan","name":"2.0","awd":false,"transmission":"","hp":"101","productionStart":1994,"productionEnd":1996,"maxSpeed":"182","accelerationKm":"12.9","accelerationMp":"12.3","fuelConsumptionPer100Km":"","fuelConsumptionPerUSPmg":"","fuelConsumptionPerUKPmg":"","fuelConsumptionPerLiter":""},"1984042":{"id":1984042,"bodyId":5375761,"brand":"audi","model":"A6","generation":"4A,C4","body":"Sedan","name":"2.8 V6 30V","awd":false,"transmission":"","hp":"193","productionStart":1995,"productionEnd":1997,"maxSpeed":"230","accelerationKm":"8.1","accelerationMp":"7.7","fuelConsumptionPer100Km":"","fuelConsumptionPerUSPmg":"","fuelConsumptionPerUKPmg":"","fuelConsumptionPerLiter":""},"2222040":{"id":2222040,"bodyId":5375761,"brand":"audi","model":"A6","generation":"4A,C4","body":"Sedan","name":"2.8 V6","awd":false,"transmission":"","hp":"174","productionStart":1994,"productionEnd":1997,"maxSpeed":"217","accelerationKm":"10.2","accelerationMp":"9.7","fuelConsumptionPer100Km":"","fuelConsumptionPerUSPmg":"","fuelConsumptionPerUKPmg":"","fuelConsumptionPerLiter":""},"2162715":{"id":2162715,"bodyId":5375761,"brand":"audi","model":"A6","generation":"4A,C4","body":"Sedan","name":"2.6 V6","awd":true,"transmission":"","hp":"150","productionStart":1994,"productionEnd":1997,"maxSpeed":"208","accelerationKm":"10.1","accelerationMp":"9.6","fuelConsumptionPer100Km":"","fuelConsumptionPerUSPmg":"","fuelConsumptionPerUKPmg":"","fuelConsumptionPerLiter":""},"8428346":{"id":8428346,"bodyId":5375761,"brand":"audi","model":"A6","generation":"4A,C4","body":"Sedan","name":"2.5 TDI","awd":true,"transmission":"","hp":"140","productionStart":1996,"productionEnd":1997,"maxSpeed":"206","accelerationKm":"10","accelerationMp":"9.5","fuelConsumptionPer100Km":"","fuelConsumptionPerUSPmg":"","fuelConsumptionPerUKPmg":"","fuelConsumptionPerLiter":""},"7772109":{"id":7772109,"bodyId":5375761,"brand":"audi","model":"A6","generation":"4A,C4","body":"Sedan","name":"2.5 TDI","awd":false,"transmission":"","hp":"115","productionStart":1994,"productionEnd":1997,"maxSpeed":"192","accelerationKm":"12.9","accelerationMp":"12.3","fuelConsumptionPer100Km":"","fuelConsumptionPerUSPmg":"","fuelConsumptionPerUKPmg":"","fuelConsumptionPerLiter":""},"3320654":{"id":3320654,"bodyId":5375761,"brand":"audi","model":"A6","generation":"4A,C4","body":"Sedan","name":"2.0","awd":false,"transmission":"","hp":"115","productionStart":1994,"productionEnd":1996,"maxSpeed":"190","accelerationKm":"11.9","accelerationMp":"11.3","fuelConsumptionPer100Km":"","fuelConsumptionPerUSPmg":"","fuelConsumptionPerUKPmg":"","fuelConsumptionPerLiter":""},"5670762":{"id":5670762,"bodyId":5375761,"brand":"audi","model":"A6","generation":"4A,C4","body":"Sedan","name":"1.9 TDI","awd":false,"transmission":"","hp":"90","productionStart":1994,"productionEnd":1996,"maxSpeed":"177","accelerationKm":"13.9","accelerationMp":"13.2","fuelConsumptionPer100Km":"","fuelConsumptionPerUSPmg":"","fuelConsumptionPerUKPmg":"","fuelConsumptionPerLiter":""},"1455851":{"id":1455851,"bodyId":5375761,"brand":"audi","model":"A6","generation":"4A,C4","body":"Sedan","name":"2.0 16V","awd":false,"transmission":"","hp":"140","productionStart":1994,"productionEnd":1997,"maxSpeed":"218","accelerationKm":"","accelerationMp":"","fuelConsumptionPer100Km":"","fuelConsumptionPerUSPmg":"","fuelConsumptionPerUKPmg":"","fuelConsumptionPerLiter":""},"5084850":{"id":5084850,"bodyId":5375761,"brand":"audi","model":"A6","generation":"4A,C4","body":"Sedan","name":"2.6 V6","awd":true,"transmission":"","hp":"150","productionStart":1994,"productionEnd":1997,"maxSpeed":"205","accelerationKm":"12.5","accelerationMp":"11.9","fuelConsumptionPer100Km":"","fuelConsumptionPerUSPmg":"","fuelConsumptionPerUKPmg":"","fuelConsumptionPerLiter":""}}