{"8314751":{"id":8314751,"bodyId":5735938,"brand":"audi","model":"A6","generation":"4F,C6","body":"Sedan","name":"4.2 FSI V8 40V","awd":true,"transmission":"","hp":"350","productionStart":2006,"productionEnd":2008,"maxSpeed":"250","accelerationKm":"5.9","accelerationMp":"5.6","fuelConsumptionPer100Km":"","fuelConsumptionPerUSPmg":"","fuelConsumptionPerUKPmg":"","fuelConsumptionPerLiter":""},"2135425":{"id":2135425,"bodyId":5735938,"brand":"audi","model":"A6","generation":"4F,C6","body":"Sedan","name":"3.2 FSI V6","awd":true,"transmission":"","hp":"255","productionStart":2004,"productionEnd":2008,"maxSpeed":"250","accelerationKm":"6.8","accelerationMp":"6.5","fuelConsumptionPer100Km":"","fuelConsumptionPerUSPmg":"","fuelConsumptionPerUKPmg":"","fuelConsumptionPerLiter":""},"1219606":{"id":1219606,"bodyId":5735938,"brand":"audi","model":"A6","generation":"4F,C6","body":"Sedan","name":"2.8 FSI V6","awd":false,"transmission":"","hp":"210","productionStart":2006,"productionEnd":2008,"maxSpeed":"238","accelerationKm":"7.9","accelerationMp":"7.5","fuelConsumptionPer100Km":"","fuelConsumptionPerUSPmg":"","fuelConsumptionPerUKPmg":"","fuelConsumptionPerLiter":""},"7023916":{"id":7023916,"bodyId":5735938,"brand":"audi","model":"A6","generation":"4F,C6","body":"Sedan","name":"3.0 TDI V6","awd":true,"transmission":"","hp":"225","productionStart":2004,"productionEnd":2006,"maxSpeed":"245","accelerationKm":"7.1","accelerationMp":"6.7","fuelConsumptionPer100Km":"","fuelConsumptionPerUSPmg":"","fuelConsumptionPerUKPmg":"","fuelConsumptionPerLiter":""},"1837428":{"id":1837428,"bodyId":5735938,"brand":"audi","model":"A6","generation":"4F,C6","body":"Sedan","name":"3.0 TDI V6","awd":true,"transmission":"","hp":"233","productionStart":2006,"productionEnd":2008,"maxSpeed":"247","accelerationKm":"6.9","accelerationMp":"6.6","fuelConsumptionPer100Km":"","fuelConsumptionPerUSPmg":"","fuelConsumptionPerUKPmg":"","fuelConsumptionPerLiter":""},"8268468":{"id":8268468,"bodyId":5735938,"brand":"audi","model":"A6","generation":"4F,C6","body":"Sedan","name":"3.0 TDI V6","awd":true,"transmission":"","hp":"233","productionStart":2006,"productionEnd":2008,"maxSpeed":"247","accelerationKm":"7.1","accelerationMp":"6.7","fuelConsumptionPer100Km":"","fuelConsumptionPerUSPmg":"","fuelConsumptionPerUKPmg":"","fuelConsumptionPerLiter":""},"2331305":{"id":2331305,"bodyId":5735938,"brand":"audi","model":"A6","generation":"4F,C6","body":"Sedan","name":"2.7 TDI V6","awd":true,"transmission":"","hp":"180","productionStart":2004,"productionEnd":2008,"maxSpeed":"228","accelerationKm":"8.9","accelerationMp":"8.5","fuelConsumptionPer100Km":"","fuelConsumptionPerUSPmg":"","fuelConsumptionPerUKPmg":"","fuelConsumptionPerLiter":""},"6312938":{"id":6312938,"bodyId":5735938,"brand":"audi","model":"A6","generation":"4F,C6","body":"Sedan","name":"2.0 TDI","awd":false,"transmission":"","hp":"140","productionStart":2004,"productionEnd":2008,"maxSpeed":"204","accelerationKm":"9.6","accelerationMp":"9.1","fuelConsumptionPer100Km":"","fuelConsumptionPerUSPmg":"","fuelConsumptionPerUKPmg":"","fuelConsumptionPerLiter":""},"2442281":{"id":2442281,"bodyId":5735938,"brand":"audi","model":"A6","generation":"4F,C6","body":"Sedan","name":"3.2 FSI V6","awd":true,"transmission":"","hp":"255","productionStart":2004,"productionEnd":2008,"maxSpeed":"250","accelerationKm":"7.1","accelerationMp":"6.7","fuelConsumptionPer100Km":"","fuelConsumptionPerUSPmg":"","fuelConsumptionPerUKPmg":"","fuelConsumptionPerLiter":""},"8554862":{"id":8554862,"bodyId":5735938,"brand":"audi","model":"A6","generation":"4F,C6","body":"Sedan","name":"2.4i V6 24V","awd":true,"transmission":"","hp":"177","productionStart":2004,"productionEnd":2008,"maxSpeed":"230","accelerationKm":"9.1","accelerationMp":"8.6","fuelConsumptionPer100Km":"","fuelConsumptionPerUSPmg":"","fuelConsumptionPerUKPmg":"","fuelConsumptionPerLiter":""},"2696484":{"id":2696484,"bodyId":5735938,"brand":"audi","model":"A6","generation":"4F,C6","body":"Sedan","name":"2.8 FSI V6","awd":false,"transmission":"","hp":"210","productionStart":2006,"productionEnd":2008,"maxSpeed":"243","accelerationKm":"7.9","accelerationMp":"7.5","fuelConsumptionPer100Km":"","fuelConsumptionPerUSPmg":"","fuelConsumptionPerUKPmg":"","fuelConsumptionPerLiter":""},"8905847":{"id":8905847,"bodyId":5735938,"brand":"audi","model":"A6","generation":"4F,C6","body":"Sedan","name":"2.7 TDI V6","awd":false,"transmission":"","hp":"180","productionStart":2004,"productionEnd":2008,"maxSpeed":"225","accelerationKm":"8.3","accelerationMp":"7.9","fuelConsumptionPer100Km":"","fuelConsumptionPerUSPmg":"","fuelConsumptionPerUKPmg":"","fuelConsumptionPerLiter":""},"9018712":{"id":9018712,"bodyId":5735938,"brand":"audi","model":"A6","generation":"4F,C6","body":"Sedan","name":"4.2i V8 40V","awd":true,"transmission":"","hp":"335","productionStart":2004,"productionEnd":2006,"maxSpeed":"250","accelerationKm":"6.1","accelerationMp":"5.8","fuelConsumptionPer100Km":"","fuelConsumptionPerUSPmg":"","fuelConsumptionPerUKPmg":"","fuelConsumptionPerLiter":""},"4807640":{"id":4807640,"bodyId":5735938,"brand":"audi","model":"A6","generation":"4F,C6","body":"Sedan","name":"2.0 TDI","awd":false,"transmission":"","hp":"140","productionStart":2004,"productionEnd":2008,"maxSpeed":"210","accelerationKm":"10.3","accelerationMp":"9.8","fuelConsumptionPer100Km":"","fuelConsumptionPerUSPmg":"","fuelConsumptionPerUKPmg":"","fuelConsumptionPerLiter":""},"6943803":{"id":6943803,"bodyId":5735938,"brand":"audi","model":"A6","generation":"4F,C6","body":"Sedan","name":"2.0 TFSI","awd":false,"transmission":"","hp":"170","productionStart":2005,"productionEnd":2008,"maxSpeed":"220","accelerationKm":"8.7","accelerationMp":"8.3","fuelConsumptionPer100Km":"","fuelConsumptionPerUSPmg":"","fuelConsumptionPerUKPmg":"","fuelConsumptionPerLiter":""},"1477410":{"id":1477410,"bodyId":5735938,"brand":"audi","model":"A6","generation":"4F,C6","body":"Sedan","name":"3.2 FSI V6","awd":false,"transmission":"","hp":"255","productionStart":2004,"productionEnd":2008,"maxSpeed":"250","accelerationKm":"7","accelerationMp":"6.7","fuelConsumptionPer100Km":"","fuelConsumptionPerUSPmg":"","fuelConsumptionPerUKPmg":"","fuelConsumptionPerLiter":""},"6525755":{"id":6525755,"bodyId":5735938,"brand":"audi","model":"A6","generation":"4F,C6","body":"Sedan","name":"3.2 FSI V6","awd":false,"transmission":"","hp":"255","productionStart":2004,"productionEnd":2008,"maxSpeed":"250","accelerationKm":"6.9","accelerationMp":"6.6","fuelConsumptionPer100Km":"","fuelConsumptionPerUSPmg":"","fuelConsumptionPerUKPmg":"","fuelConsumptionPerLiter":""},"3751873":{"id":3751873,"bodyId":5735938,"brand":"audi","model":"A6","generation":"4F,C6","body":"Sedan","name":"2.7 TDI V6","awd":false,"transmission":"","hp":"180","productionStart":2004,"productionEnd":2008,"maxSpeed":"227","accelerationKm":"8.9","accelerationMp":"8.5","fuelConsumptionPer100Km":"","fuelConsumptionPerUSPmg":"","fuelConsumptionPerUKPmg":"","fuelConsumptionPerLiter":""},"5077205":{"id":5077205,"bodyId":5735938,"brand":"audi","model":"A6","generation":"4F,C6","body":"Sedan","name":"2.0 TFSI","awd":false,"transmission":"","hp":"170","productionStart":2005,"productionEnd":2008,"maxSpeed":"227","accelerationKm":"8.4","accelerationMp":"8","fuelConsumptionPer100Km":"","fuelConsumptionPerUSPmg":"","fuelConsumptionPerUKPmg":"","fuelConsumptionPerLiter":""},"7813582":{"id":7813582,"bodyId":5735938,"brand":"audi","model":"A6","generation":"4F,C6","body":"Sedan","name":"2.4i V6 24V","awd":false,"transmission":"","hp":"177","productionStart":2004,"productionEnd":2008,"maxSpeed":"231","accelerationKm":"8.9","accelerationMp":"8.5","fuelConsumptionPer100Km":"","fuelConsumptionPerUSPmg":"","fuelConsumptionPerUKPmg":"","fuelConsumptionPerLiter":""},"5164561":{"id":5164561,"bodyId":5735938,"brand":"audi","model":"A6","generation":"4F,C6","body":"Sedan","name":"3.0 TDI V6","awd":true,"transmission":"","hp":"225","productionStart":2004,"productionEnd":2006,"maxSpeed":"243","accelerationKm":"7.3","accelerationMp":"6.9","fuelConsumptionPer100Km":"","fuelConsumptionPerUSPmg":"","fuelConsumptionPerUKPmg":"","fuelConsumptionPerLiter":""},"6361374":{"id":6361374,"bodyId":5735938,"brand":"audi","model":"A6","generation":"4F,C6","body":"Sedan","name":"2.4i V6 24V","awd":false,"transmission":"","hp":"177","productionStart":2004,"productionEnd":2008,"maxSpeed":"226","accelerationKm":"9.2","accelerationMp":"8.7","fuelConsumptionPer100Km":"","fuelConsumptionPerUSPmg":"","fuelConsumptionPerUKPmg":"","fuelConsumptionPerLiter":""}}