{"7397296":{"id":7397296,"bodyId":4265892,"brand":"audi","model":"A6","generation":"C8","body":"Sedan","name":"50 TDI V6","awd":true,"transmission":"","hp":"286","productionStart":2018,"productionEnd":0,"maxSpeed":"250","accelerationKm":"5.5","accelerationMp":"5.2","fuelConsumptionPer100Km":"","fuelConsumptionPerUSPmg":"","fuelConsumptionPerUKPmg":"","fuelConsumptionPerLiter":""},"4004316":{"id":4004316,"bodyId":4265892,"brand":"audi","model":"A6","generation":"C8","body":"Sedan","name":"55 TFSI V6","awd":true,"transmission":"","hp":"340","productionStart":2018,"productionEnd":0,"maxSpeed":"250","accelerationKm":"5.1","accelerationMp":"4.8","fuelConsumptionPer100Km":"","fuelConsumptionPerUSPmg":"","fuelConsumptionPerUKPmg":"","fuelConsumptionPerLiter":""},"7595826":{"id":7595826,"bodyId":4265892,"brand":"audi","model":"A6","generation":"C8","body":"Sedan","name":"45 TFSI","awd":true,"transmission":"","hp":"265","productionStart":2020,"productionEnd":0,"maxSpeed":"250","accelerationKm":"6","accelerationMp":"5.7","fuelConsumptionPer100Km":"","fuelConsumptionPerUSPmg":"","fuelConsumptionPerUKPmg":"","fuelConsumptionPerLiter":""},"5957625":{"id":5957625,"bodyId":4265892,"brand":"audi","model":"A6","generation":"C8","body":"Sedan","name":"55 TFSI e","awd":true,"transmission":"","hp":"265","productionStart":2021,"productionEnd":0,"maxSpeed":"250","accelerationKm":"5.6","accelerationMp":"5.3","fuelConsumptionPer100Km":"","fuelConsumptionPerUSPmg":"","fuelConsumptionPerUKPmg":"","fuelConsumptionPerLiter":""},"3641855":{"id":3641855,"bodyId":4265892,"brand":"audi","model":"A6","generation":"C8","body":"Sedan","name":"45 TDI V6","awd":true,"transmission":"","hp":"231","productionStart":2018,"productionEnd":0,"maxSpeed":"250","accelerationKm":"6.3","accelerationMp":"6","fuelConsumptionPer100Km":"","fuelConsumptionPerUSPmg":"","fuelConsumptionPerUKPmg":"","fuelConsumptionPerLiter":""},"7738140":{"id":7738140,"bodyId":4265892,"brand":"audi","model":"A6","generation":"C8","body":"Sedan","name":"50 TFSI e","awd":true,"transmission":"","hp":"252","productionStart":2019,"productionEnd":2020,"maxSpeed":"250","accelerationKm":"6.2","accelerationMp":"5.9","fuelConsumptionPer100Km":"","fuelConsumptionPerUSPmg":"","fuelConsumptionPerUKPmg":"","fuelConsumptionPerLiter":""},"2767712":{"id":2767712,"bodyId":4265892,"brand":"audi","model":"A6","generation":"C8","body":"Sedan","name":"40 TDI","awd":true,"transmission":"","hp":"204","productionStart":2018,"productionEnd":0,"maxSpeed":"246","accelerationKm":"7.6","accelerationMp":"7.2","fuelConsumptionPer100Km":"","fuelConsumptionPerUSPmg":"","fuelConsumptionPerUKPmg":"","fuelConsumptionPerLiter":""},"2979239":{"id":2979239,"bodyId":4265892,"brand":"audi","model":"A6","generation":"C8","body":"Sedan","name":"35 TDI","awd":false,"transmission":"","hp":"163","productionStart":2019,"productionEnd":0,"maxSpeed":"224","accelerationKm":"9.3","accelerationMp":"8.8","fuelConsumptionPer100Km":"","fuelConsumptionPerUSPmg":"","fuelConsumptionPerUKPmg":"","fuelConsumptionPerLiter":""},"5165087":{"id":5165087,"bodyId":4265892,"brand":"audi","model":"A6","generation":"C8","body":"Sedan","name":"50 TFSI e","awd":true,"transmission":"","hp":"265","productionStart":2021,"productionEnd":0,"maxSpeed":"250","accelerationKm":"6.2","accelerationMp":"5.9","fuelConsumptionPer100Km":"","fuelConsumptionPerUSPmg":"","fuelConsumptionPerUKPmg":"","fuelConsumptionPerLiter":""},"4104267":{"id":4104267,"bodyId":4265892,"brand":"audi","model":"A6","generation":"C8","body":"Sedan","name":"45 TFSI","awd":true,"transmission":"","hp":"245","productionStart":2019,"productionEnd":2020,"maxSpeed":"250","accelerationKm":"6","accelerationMp":"5.7","fuelConsumptionPer100Km":"","fuelConsumptionPerUSPmg":"","fuelConsumptionPerUKPmg":"","fuelConsumptionPerLiter":""},"5629634":{"id":5629634,"bodyId":4265892,"brand":"audi","model":"A6","generation":"C8","body":"Sedan","name":"45 TFSI","awd":false,"transmission":"","hp":"245","productionStart":2019,"productionEnd":2020,"maxSpeed":"250","accelerationKm":"6.8","accelerationMp":"6.5","fuelConsumptionPer100Km":"","fuelConsumptionPerUSPmg":"","fuelConsumptionPerUKPmg":"","fuelConsumptionPerLiter":""},"1332781":{"id":1332781,"bodyId":4265892,"brand":"audi","model":"A6","generation":"C8","body":"Sedan","name":"55 TFSI e","awd":true,"transmission":"","hp":"252","productionStart":2019,"productionEnd":2020,"maxSpeed":"250","accelerationKm":"5.6","accelerationMp":"5.3","fuelConsumptionPer100Km":"","fuelConsumptionPerUSPmg":"","fuelConsumptionPerUKPmg":"","fuelConsumptionPerLiter":""},"7394666":{"id":7394666,"bodyId":4265892,"brand":"audi","model":"A6","generation":"C8","body":"Sedan","name":"45 TFSI","awd":false,"transmission":"","hp":"265","productionStart":2020,"productionEnd":0,"maxSpeed":"250","accelerationKm":"6.8","accelerationMp":"6.5","fuelConsumptionPer100Km":"","fuelConsumptionPerUSPmg":"","fuelConsumptionPerUKPmg":"","fuelConsumptionPerLiter":""},"2298751":{"id":2298751,"bodyId":4265892,"brand":"audi","model":"A6","generation":"C8","body":"Sedan","name":"40 TDI","awd":false,"transmission":"","hp":"204","productionStart":2018,"productionEnd":0,"maxSpeed":"246","accelerationKm":"8.1","accelerationMp":"7.7","fuelConsumptionPer100Km":"","fuelConsumptionPerUSPmg":"","fuelConsumptionPerUKPmg":"","fuelConsumptionPerLiter":""}}